$$SOE
2459580.500000000, A.D. 2022-Jan-01 00:00:00.0000, -4.242272563746483E+08, -3.290070916238424E+07, 6.591850565083311E+07,
2459587.500000000, A.D. 2022-Jan-08 00:00:00.0000, -4.239013847874287E+08, -4.371963578687663E+07, 6.533653440466692E+07,
2459594.500000000, A.D. 2022-Jan-15 00:00:00.0000, -4.233187783120868E+08, -5.451207664316928E+07, 6.471498441025943E+07,
2459601.500000000, A.D. 2022-Jan-22 00:00:00.0000, -4.224807872643798E+08, -6.527162417406774E+07, 6.405438489974396E+07,
2459608.500000000, A.D. 2022-Jan-29 00:00:00.0000, -4.213889244642407E+08, -7.599194109274723E+07, 6.335528761154632E+07,
2459615.500000000, A.D. 2022-Feb-05 00:00:00.0000, -4.200448637057760E+08, -8.666676539312072E+07, 6.261826613070805E+07,
2459622.500000000, A.D. 2022-Feb-12 00:00:00.0000, -4.184504359518860E+08, -9.728991622447176E+07, 6.184391493833934E+07,
2459629.500000000, A.D. 2022-Feb-19 00:00:00.0000, -4.166076245887223E+08, -1.078552982584269E+08, 6.103284848697157E+07,
2459636.500000000, A.D. 2022-Feb-26 00:00:00.0000, -4.145185610607162E+08, -1.183569052702693E+08, 6.018570036414826E+07,
2459643.500000000, A.D. 2022-Mar-05 00:00:00.0000, -4.121855207372169E+08, -1.287888235515083E+08, 5.930312248040222E+07,
2459650.500000000, A.D. 2022-Mar-12 00:00:00.0000, -4.096109187987406E+08, -1.391452352194357E+08, 5.838578425697444E+07,
2459657.500000000, A.D. 2022-Mar-19 00:00:00.0000, -4.067973060803386E+08, -1.494204213966594E+08, 5.743437180992378E+07,
2459664.500000000, A.D. 2022-Mar-26 00:00:00.0000, -4.037473648584278E+08, -1.596087652693951E+08, 5.644958712909222E+07,
2459671.500000000, A.D. 2022-Apr-02 00:00:00.0000, -4.004639045234581E+08, -1.697047550841568E+08, 5.543214724250010E+07,
2459678.500000000, A.D. 2022-Apr-09 00:00:00.0000, -3.969498568774781E+08, -1.797029870813800E+08, 5.438278334313591E+07,
2459685.500000000, A.D. 2022-Apr-16 00:00:00.0000, -3.932082707098561E+08, -1.895981677142981E+08, 5.330223990013396E+07,
2459692.500000000, A.D. 2022-Apr-23 00:00:00.0000, -3.892423069283851E+08, -1.993851140710016E+08, 5.219127396020648E+07,
2459699.500000000, A.D. 2022-Apr-30 00:00:00.0000, -3.850552361230813E+08, -2.090587547486540E+08, 5.105065462808628E+07,
2459706.500000000, A.D. 2022-May-07 00:00:00.0000, -3.806504355081778E+08, -2.186141331587217E+08, 4.988116228483504E+07,
2459713.500000000, A.D. 2022-May-14 00:00:00.0000, -3.760313838611262E+08, -2.280464102296224E+08, 4.868358766610305E+07,
2459720.500000000, A.D. 2022-May-21 00:00:00.0000, -3.712016564959496E+08, -2.373508657520321E+08, 4.745873104957210E+07,
2459727.500000000, A.D. 2022-May-28 00:00:00.0000, -3.661649207552246E+08, -2.465228993306243E+08, 4.620740151786272E+07,
2459734.500000000, A.D. 2022-Jun-04 00:00:00.0000, -3.609249317497243E+08, -2.555580312610940E+08, 4.493041624671325E+07,
2459741.500000000, A.D. 2022-Jun-11 00:00:00.0000, -3.554855282077076E+08, -2.644519033362150E+08, 4.362859980621554E+07,
2459748.500000000, A.D. 2022-Jun-18 00:00:00.0000, -3.498506284013671E+08, -2.732002795729317E+08, 4.230278347341924E+07,
2459755.500000000, A.D. 2022-Jun-25 00:00:00.0000, -3.440242261262302E+08, -2.817990468986506E+08, 4.095380455148512E+07,
2459762.500000000, A.D. 2022-Jul-02 00:00:00.0000, -3.380103866039152E+08, -2.902442158675587E+08, 3.958250567818744E+07,
2459769.500000000, A.D. 2022-Jul-09 00:00:00.0000, -3.318132419218947E+08, -2.985319212352350E+08, 3.818973410284394E+07,
2459776.500000000, A.D. 2022-Jul-16 00:00:00.0000, -3.254369860687935E+08, -3.066584213139211E+08, 3.677634102558257E+07,
2459783.500000000, A.D. 2022-Jul-23 00:00:00.0000, -3.188858717660557E+08, -3.146200960359463E+08, 3.534318120719296E+07,
2459790.500000000, A.D. 2022-Jul-30 00:00:00.0000, -3.121642090142052E+08, -3.224134470855793E+08, 3.389111256804378E+07,
2459797.500000000, A.D. 2022-Aug-06 00:00:00.0000, -3.052763617584205E+08, -3.300350994583058E+08, 3.242099549945527E+07,
2459804.500000000, A.D. 2022-Aug-13 00:00:00.0000, -2.982267434999806E+08, -3.374818016988895E+08, 3.093369218866602E+07,
2459811.500000000, A.D. 2022-Aug-20 00:00:00.0000, -2.910198134248390E+08, -3.447504253262830E+08, 2.943006606047024E+07,
2459818.500000000, A.D. 2022-Aug-27 00:00:00.0000, -2.836600729820583E+08, -3.518379641768405E+08, 2.791098126997279E+07,
2459825.500000000, A.D. 2022-Sep-03 00:00:00.0000, -2.761520626648481E+08, -3.587415337820408E+08, 2.637730221469538E+07,
2459832.500000000, A.D. 2022-Sep-10 00:00:00.0000, -2.685003589051039E+08, -3.654583707629640E+08, 2.482989305976908E+07,
2459839.500000000, A.D. 2022-Sep-17 00:00:00.0000, -2.607095710532638E+08, -3.719858322492292E+08, 2.326961727338953E+07,
2459846.500000000, A.D. 2022-Sep-24 00:00:00.0000, -2.527843383840377E+08, -3.783213953787914E+08, 2.169733716272834E+07,
2459853.500000000, A.D. 2022-Oct-01 00:00:00.0000, -2.447293268886268E+08, -3.844626569061705E+08, 2.011391338620590E+07,
2459860.500000000, A.D. 2022-Oct-08 00:00:00.0000, -2.365492254464403E+08, -3.904073324021270E+08, 1.852020444704713E+07,
2459867.500000000, A.D. 2022-Oct-15 00:00:00.0000, -2.282487423081068E+08, -3.961532538502735E+08, 1.691706635109043E+07,
2459874.500000000, A.D. 2022-Oct-22 00:00:00.0000, -2.198326040706801E+08, -4.016983673288800E+08, 1.530535249070778E+07,
2459881.500000000, A.D. 2022-Oct-29 00:00:00.0000, -2.113055546466781E+08, -4.070407333766401E+08, 1.368591331313577E+07,
2459888.500000000, A.D. 2022-Nov-05 00:00:00.0000, -2.026723521282091E+08, -4.121785273066419E+08, 1.205959580417117E+07,
2459895.500000000, A.D. 2022-Nov-12 00:00:00.0000, -1.939377655114770E+08, -4.171100382046946E+08, 1.042724307053101E+07,
2459902.500000000, A.D. 2022-Nov-19 00:00:00.0000, -1.851065720001296E+08, -4.218336675678067E+08, 8.789694008312762E+06,
2459909.500000000, A.D. 2022-Nov-26 00:00:00.0000, -1.761835546227456E+08, -4.263479279816246E+08, 7.147783000399262E+06,
2459916.500000000, A.D. 2022-Dec-03 00:00:00.0000, -1.671734999949640E+08, -4.306514418511665E+08, 5.502339626038164E+06,
2459923.500000000, A.D. 2022-Dec-10 00:00:00.0000, -1.580811961776245E+08, -4.347429401709797E+08, 3.854188379464000E+06,
2459930.500000000, A.D. 2022-Dec-17 00:00:00.0000, -1.489114306045569E+08, -4.386212613656710E+08, 2.204148392915130E+06,
2459937.500000000, A.D. 2022-Dec-24 00:00:00.0000, -1.396689879702698E+08, -4.422853502721519E+08, 5.530331483605504E+05,
2459944.500000000, A.D. 2022-Dec-31 00:00:00.0000, -1.303586477198726E+08, -4.457342571602792E+08, -1.098349846361458E+06,
2459951.500000000, A.D. 2023-Jan-07 00:00:00.0000, -1.209851810181176E+08, -4.489671358323730E+08, -2.749199349917591E+06,
2459958.500000000, A.D. 2023-Jan-14 00:00:00.0000, -1.115533491633487E+08, -4.519832403064311E+08, -4.398720427702427E+06,
2459965.500000000, A.D. 2023-Jan-21 00:00:00.0000, -1.020679040887417E+08, -4.547819232568818E+08, -6.046124440468967E+06,
2459972.500000000, A.D. 2023-Jan-28 00:00:00.0000, -9.253358728019810E+07, -4.573626364109433E+08, -7.690629334212393E+06,
2459979.500000000, A.D. 2023-Feb-04 00:00:00.0000, -8.295512731757857E+07, -4.597249298760529E+08, -9.331459965068996E+06,
2459986.500000000, A.D. 2023-Feb-11 00:00:00.0000, -7.333723783287029E+07, -4.618684505942439E+08, -1.096784831065562E+07,
2459993.500000000, A.D. 2023-Feb-18 00:00:00.0000, -6.368461594668088E+07, -4.637929407482059E+08, -1.259903362959215E+07,
2460000.500000000, A.D. 2023-Feb-25 00:00:00.0000, -5.400194091816984E+07, -4.654982362820257E+08, -1.422426260679796E+07,
2460007.500000000, A.D. 2023-Mar-04 00:00:00.0000, -4.429387290382063E+07, -4.669842655188580E+08, -1.584278949266320E+07,
2460014.500000000, A.D. 2023-Mar-11 00:00:00.0000, -3.456505179377769E+07, -4.682510478763036E+08, -1.745387623892966E+07,
2460021.500000000, A.D. 2023-Mar-18 00:00:00.0000, -2.482009607612209E+07, -4.692986927306827E+08, -1.905679263985291E+07,
2460028.500000000, A.D. 2023-Mar-25 00:00:00.0000, -1.506360152356470E+07, -4.701273984792582E+08, -2.065081650132006E+07,
2460035.500000000, A.D. 2023-Apr-01 00:00:00.0000, -5.300139276130885E+06, -4.707374514086517E+08, -2.223523384485775E+07,
2460042.500000000, A.D. 2023-Apr-08 00:00:00.0000, 4.465746066485689E+06, -4.711292231455896E+08, -2.380933899011838E+07,
2460049.500000000, A.D. 2023-Apr-15 00:00:00.0000, 1.422953600775046E+07, -4.713031677962706E+08, -2.537243439204308E+07,
2460056.500000000, A.D. 2023-Apr-22 00:00:00.0000, 2.398673718407908E+07, -4.712598218262669E+08, -2.692383064832279E+07,
2460063.500000000, A.D. 2023-Apr-29 00:00:00.0000, 3.373288259937645E+07, -4.709998044294562E+08, -2.846284674430439E+07,
2460070.500000000, A.D. 2023-May-06 00:00:00.0000, 4.346353330615107E+07, -4.705238166066037E+08, -2.998881022874665E+07,
2460077.500000000, A.D. 2023-May-13 00:00:00.0000, 5.317427955818674E+07, -4.698326398481888E+08, -3.150105730430952E+07,
2460084.500000000, A.D. 2023-May-20 00:00:00.0000, 6.286074167069218E+07, -4.689271349132197E+08, -3.299893289491221E+07,
2460091.500000000, A.D. 2023-May-27 00:00:00.0000, 7.251857078316230E+07, -4.678082407339077E+08, -3.448179071069583E+07,
2460098.500000000, A.D. 2023-Jun-03 00:00:00.0000, 8.214344958435193E+07, -4.664769734204023E+08, -3.594899331437454E+07,
2460105.500000000, A.D. 2023-Jun-10 00:00:00.0000, 9.173109302520114E+07, -4.649344253795341E+08, -3.739991219293842E+07,
2460112.500000000, A.D. 2023-Jun-17 00:00:00.0000, 1.012772491109470E+08, -4.631817646082498E+08, -3.883392784846964E+07,
2460119.500000000, A.D. 2023-Jun-24 00:00:00.0000, 1.107777000943371E+08, -4.612202341071942E+08, -4.025042993352896E+07,
2460126.500000000, A.D. 2023-Jul-01 00:00:00.0000, 1.202282643244243E+08, -4.590511505874453E+08, -4.164881738721451E+07,
2460133.500000000, A.D. 2023-Jul-08 00:00:00.0000, 1.296247970776383E+08, -4.566759016486641E+08, -4.302849835155568E+07,
2460140.500000000, A.D. 2023-Jul-15 00:00:00.0000, 1.389631890948943E+08, -4.540959442571405E+08, -4.438888998255455E+07,
$$EOE